[{"OBJECT_NAME":"SZ-21 MODULE","OBJECT_ID":"2025-246C","EPOCH":"2026-03-07T11:06:32.685984","MEAN_MOTION":15.68341086,"ECCENTRICITY":0.00014291,"INCLINATION":41.4737,"RA_OF_ASC_NODE":217.0662,"ARG_OF_PERICENTER":294.3949,"MEAN_ANOMALY":65.6744,"EPHEMERIS_TYPE":0,"CLASSIFICATION_TYPE":"U","NORAD_CAT_ID":66515,"ELEMENT_SET_NO":999,"REV_AT_EPOCH":1772,"BSTAR":0.00043322838,"MEAN_MOTION_DOT":0.00050102,"MEAN_MOTION_DDOT":0},{"OBJECT_NAME":"SHENZHOU-22","OBJECT_ID":"2025-272A","EPOCH":"2026-03-08T01:14:30.124320","MEAN_MOTION":15.60561665,"ECCENTRICITY":0.0007,"INCLINATION":41.4663,"RA_OF_ASC_NODE":218.1268,"ARG_OF_PERICENTER":262.9146,"MEAN_ANOMALY":97.0897,"EPHEMERIS_TYPE":0,"CLASSIFICATION_TYPE":"U","NORAD_CAT_ID":66645,"ELEMENT_SET_NO":999,"REV_AT_EPOCH":26895,"BSTAR":0.00033952,"MEAN_MOTION_DOT":0.00028649,"MEAN_MOTION_DDOT":0},{"OBJECT_NAME":"SOYUZ-MS 28","OBJECT_ID":"2025-275A","EPOCH":"2026-03-07T18:30:03.892896","MEAN_MOTION":15.4851426,"ECCENTRICITY":0.00081173,"INCLINATION":51.632,"RA_OF_ASC_NODE":81.8427,"ARG_OF_PERICENTER":167.9196,"MEAN_ANOMALY":192.1989,"EPHEMERIS_TYPE":0,"CLASSIFICATION_TYPE":"U","NORAD_CAT_ID":66664,"ELEMENT_SET_NO":999,"REV_AT_EPOCH":55452,"BSTAR":0.00026707368,"MEAN_MOTION_DOT":0.00014056,"MEAN_MOTION_DDOT":0},{"OBJECT_NAME":"DUPLEX","OBJECT_ID":"1998-067XS","EPOCH":"2026-03-07T06:34:54.012864","MEAN_MOTION":15.56027322,"ECCENTRICITY":0.0002224,"INCLINATION":51.6285,"RA_OF_ASC_NODE":81.5298,"ARG_OF_PERICENTER":101.9633,"MEAN_ANOMALY":258.1608,"EPHEMERIS_TYPE":0,"CLASSIFICATION_TYPE":"U","NORAD_CAT_ID":66906,"ELEMENT_SET_NO":999,"REV_AT_EPOCH":1475,"BSTAR":0.00056716,"MEAN_MOTION_DOT":0.00039972,"MEAN_MOTION_DDOT":0},{"OBJECT_NAME":"ISS OBJECT XT","OBJECT_ID":"1998-067XT","EPOCH":"2026-03-08T01:18:00.458208","MEAN_MOTION":15.6866154,"ECCENTRICITY":0.0004744,"INCLINATION":51.6247,"RA_OF_ASC_NODE":73.9749,"ARG_OF_PERICENTER":67.332,"MEAN_ANOMALY":292.8178,"EPHEMERIS_TYPE":0,"CLASSIFICATION_TYPE":"U","NORAD_CAT_ID":66907,"ELEMENT_SET_NO":999,"REV_AT_EPOCH":1492,"BSTAR":0.0016503,"MEAN_MOTION_DOT":0.00195859,"MEAN_MOTION_DDOT":0},{"OBJECT_NAME":"ISS OBJECT XU","OBJECT_ID":"1998-067XU","EPOCH":"2026-03-08T01:15:35.047008","MEAN_MOTION":15.68767793,"ECCENTRICITY":0.0004942,"INCLINATION":51.6241,"RA_OF_ASC_NODE":73.9603,"ARG_OF_PERICENTER":70.0381,"MEAN_ANOMALY":290.1148,"EPHEMERIS_TYPE":0,"CLASSIFICATION_TYPE":"U","NORAD_CAT_ID":66908,"ELEMENT_SET_NO":999,"REV_AT_EPOCH":1492,"BSTAR":0.0016177,"MEAN_MOTION_DOT":0.0019275,"MEAN_MOTION_DDOT":0},{"OBJECT_NAME":"SILVERSAT","OBJECT_ID":"1998-067XV","EPOCH":"2026-03-08T01:21:33.473952","MEAN_MOTION":15.7150821,"ECCENTRICITY":0.0005588,"INCLINATION":51.6251,"RA_OF_ASC_NODE":73.2368,"ARG_OF_PERICENTER":66.1034,"MEAN_ANOMALY":294.0549,"EPHEMERIS_TYPE":0,"CLASSIFICATION_TYPE":"U","NORAD_CAT_ID":66909,"ELEMENT_SET_NO":999,"REV_AT_EPOCH":1493,"BSTAR":0.0018281,"MEAN_MOTION_DOT":0.00245859,"MEAN_MOTION_DDOT":0},{"OBJECT_NAME":"ISS OBJECT XW","OBJECT_ID":"1998-067XW","EPOCH":"2026-03-08T01:09:40.069152","MEAN_MOTION":15.68050073,"ECCENTRICITY":0.0005095,"INCLINATION":51.6238,"RA_OF_ASC_NODE":73.9282,"ARG_OF_PERICENTER":75.6439,"MEAN_ANOMALY":284.5122,"EPHEMERIS_TYPE":0,"CLASSIFICATION_TYPE":"U","NORAD_CAT_ID":66910,"ELEMENT_SET_NO":999,"REV_AT_EPOCH":1492,"BSTAR":0.0015106,"MEAN_MOTION_DOT":0.00174342,"MEAN_MOTION_DDOT":0},{"OBJECT_NAME":"ISS OBJECT XX","OBJECT_ID":"1998-067XX","EPOCH":"2026-03-07T23:50:26.580480","MEAN_MOTION":15.7440318,"ECCENTRICITY":0.0007035,"INCLINATION":51.6211,"RA_OF_ASC_NODE":72.7968,"ARG_OF_PERICENTER":71.7783,"MEAN_ANOMALY":288.3981,"EPHEMERIS_TYPE":0,"CLASSIFICATION_TYPE":"U","NORAD_CAT_ID":66911,"ELEMENT_SET_NO":999,"REV_AT_EPOCH":1492,"BSTAR":0.0020292,"MEAN_MOTION_DOT":0.00311474,"MEAN_MOTION_DDOT":0},{"OBJECT_NAME":"ISS OBJECT XY","OBJECT_ID":"1998-067XY","EPOCH":"2026-03-08T01:08:35.484288","MEAN_MOTION":15.63326659,"ECCENTRICITY":0.0003164,"INCLINATION":51.6266,"RA_OF_ASC_NODE":75.4404,"ARG_OF_PERICENTER":78.4704,"MEAN_ANOMALY":281.6646,"EPHEMERIS_TYPE":0,"CLASSIFICATION_TYPE":"U","NORAD_CAT_ID":66912,"ELEMENT_SET_NO":999,"REV_AT_EPOCH":1489,"BSTAR":0.0012442,"MEAN_MOTION_DOT":0.00117853,"MEAN_MOTION_DDOT":0},{"OBJECT_NAME":"ISS OBJECT XZ","OBJECT_ID":"1998-067XZ","EPOCH":"2026-03-08T01:16:37.679232","MEAN_MOTION":15.5167599,"ECCENTRICITY":0.0009473,"INCLINATION":51.6304,"RA_OF_ASC_NODE":79.98,"ARG_OF_PERICENTER":180.1089,"MEAN_ANOMALY":179.99,"EPHEMERIS_TYPE":0,"CLASSIFICATION_TYPE":"U","NORAD_CAT_ID":67683,"ELEMENT_SET_NO":999,"REV_AT_EPOCH":453,"BSTAR":0.00084448,"MEAN_MOTION_DOT":0.00051106,"MEAN_MOTION_DDOT":0},{"OBJECT_NAME":"GXIBA-1","OBJECT_ID":"1998-067YA","EPOCH":"2026-03-08T00:41:03.096384","MEAN_MOTION":15.54014167,"ECCENTRICITY":0.001087,"INCLINATION":51.6303,"RA_OF_ASC_NODE":79.816,"ARG_OF_PERICENTER":170.2751,"MEAN_ANOMALY":189.8452,"EPHEMERIS_TYPE":0,"CLASSIFICATION_TYPE":"U","NORAD_CAT_ID":67684,"ELEMENT_SET_NO":999,"REV_AT_EPOCH":453,"BSTAR":0.0015323,"MEAN_MOTION_DOT":0.00102065,"MEAN_MOTION_DDOT":0},{"OBJECT_NAME":"CORAL","OBJECT_ID":"1998-067YB","EPOCH":"2026-03-08T01:10:46.948800","MEAN_MOTION":15.52015195,"ECCENTRICITY":0.0011437,"INCLINATION":51.6306,"RA_OF_ASC_NODE":79.9523,"ARG_OF_PERICENTER":177.0714,"MEAN_ANOMALY":183.0344,"EPHEMERIS_TYPE":0,"CLASSIFICATION_TYPE":"U","NORAD_CAT_ID":67685,"ELEMENT_SET_NO":999,"REV_AT_EPOCH":453,"BSTAR":0.0009324,"MEAN_MOTION_DOT":0.00057263,"MEAN_MOTION_DDOT":0},{"OBJECT_NAME":"ISS OBJECT YC","OBJECT_ID":"1998-067YC","EPOCH":"2026-03-08T02:36:18.910080","MEAN_MOTION":15.5252731,"ECCENTRICITY":0.0007881,"INCLINATION":51.6308,"RA_OF_ASC_NODE":79.6014,"ARG_OF_PERICENTER":144.5542,"MEAN_ANOMALY":215.5973,"EPHEMERIS_TYPE":0,"CLASSIFICATION_TYPE":"U","NORAD_CAT_ID":67686,"ELEMENT_SET_NO":999,"REV_AT_EPOCH":454,"BSTAR":0.0011259,"MEAN_MOTION_DOT":0.00070562,"MEAN_MOTION_DDOT":0},{"OBJECT_NAME":"LEOPARD","OBJECT_ID":"1998-067YD","EPOCH":"2026-03-08T01:13:31.544256","MEAN_MOTION":15.51844798,"ECCENTRICITY":0.000788,"INCLINATION":51.631,"RA_OF_ASC_NODE":79.9667,"ARG_OF_PERICENTER":149.0088,"MEAN_ANOMALY":211.1368,"EPHEMERIS_TYPE":0,"CLASSIFICATION_TYPE":"U","NORAD_CAT_ID":67687,"ELEMENT_SET_NO":999,"REV_AT_EPOCH":445,"BSTAR":0.00087276,"MEAN_MOTION_DOT":0.00053141,"MEAN_MOTION_DDOT":0},{"OBJECT_NAME":"ISS OBJECT YE","OBJECT_ID":"1998-067YE","EPOCH":"2026-03-08T02:39:33.120864","MEAN_MOTION":15.52291499,"ECCENTRICITY":0.0007833,"INCLINATION":51.6306,"RA_OF_ASC_NODE":79.6163,"ARG_OF_PERICENTER":145.339,"MEAN_ANOMALY":214.8112,"EPHEMERIS_TYPE":0,"CLASSIFICATION_TYPE":"U","NORAD_CAT_ID":67688,"ELEMENT_SET_NO":999,"REV_AT_EPOCH":446,"BSTAR":0.0010339,"MEAN_MOTION_DOT":0.00064151,"MEAN_MOTION_DDOT":0},{"OBJECT_NAME":"CREW DRAGON 12","OBJECT_ID":"2026-031A","EPOCH":"2026-03-07T18:30:03.892896","MEAN_MOTION":15.4851426,"ECCENTRICITY":0.00081173,"INCLINATION":51.632,"RA_OF_ASC_NODE":81.8427,"ARG_OF_PERICENTER":167.9196,"MEAN_ANOMALY":192.1989,"EPHEMERIS_TYPE":0,"CLASSIFICATION_TYPE":"U","NORAD_CAT_ID":67796,"ELEMENT_SET_NO":999,"REV_AT_EPOCH":55592,"BSTAR":0.00026707368,"MEAN_MOTION_DOT":0.00014056,"MEAN_MOTION_DDOT":0}]
